{"fetched_at":"2026-07-07T07:58:34.578Z","source":"https://celestrak.org/NORAD/elements/gp.php?NAME=HAWK&FORMAT=JSON","constellation":"hawkeye-360","records":[{"OBJECT_NAME":"HAWK-A","OBJECT_ID":"2018-099H","EPOCH":"2026-07-06T16:59:24.789120","CLASSIFICATION_TYPE":"U","MEAN_MOTION":15.24890442,"ECCENTRICITY":0.0033854,"INCLINATION":97.39,"RA_OF_ASC_NODE":239.6909,"ARG_OF_PERICENTER":214.1845,"MEAN_ANOMALY":145.7213,"EPHEMERIS_TYPE":0,"NORAD_CAT_ID":43765,"ELEMENT_SET_NO":999,"REV_AT_EPOCH":41607,"BSTAR":0.00022165,"MEAN_MOTION_DOT":0.00005528,"MEAN_MOTION_DDOT":0},{"OBJECT_NAME":"HAWK-B","OBJECT_ID":"2018-099AN","EPOCH":"2026-07-06T16:29:28.336128","CLASSIFICATION_TYPE":"U","MEAN_MOTION":15.23050465,"ECCENTRICITY":0.0030644,"INCLINATION":97.3947,"RA_OF_ASC_NODE":239.0444,"ARG_OF_PERICENTER":232.7871,"MEAN_ANOMALY":127.0569,"EPHEMERIS_TYPE":0,"NORAD_CAT_ID":43794,"ELEMENT_SET_NO":999,"REV_AT_EPOCH":41600,"BSTAR":0.00023028,"MEAN_MOTION_DOT":0.0000542,"MEAN_MOTION_DDOT":0},{"OBJECT_NAME":"HAWK-C","OBJECT_ID":"2018-099AT","EPOCH":"2026-07-06T15:21:39.691872","CLASSIFICATION_TYPE":"U","MEAN_MOTION":15.28398754,"ECCENTRICITY":0.0039501,"INCLINATION":97.3876,"RA_OF_ASC_NODE":240.6324,"ARG_OF_PERICENTER":214.3918,"MEAN_ANOMALY":145.4764,"EPHEMERIS_TYPE":0,"NORAD_CAT_ID":43799,"ELEMENT_SET_NO":999,"REV_AT_EPOCH":41688,"BSTAR":0.00024495,"MEAN_MOTION_DOT":0.00006853,"MEAN_MOTION_DDOT":0},{"OBJECT_NAME":"HAWK-2C","OBJECT_ID":"2021-006CT","EPOCH":"2026-07-06T17:04:58.337184","CLASSIFICATION_TYPE":"U","MEAN_MOTION":15.34915757,"ECCENTRICITY":0.0008424,"INCLINATION":97.2268,"RA_OF_ASC_NODE":231.6334,"ARG_OF_PERICENTER":125.3355,"MEAN_ANOMALY":234.8678,"EPHEMERIS_TYPE":0,"NORAD_CAT_ID":47502,"ELEMENT_SET_NO":999,"REV_AT_EPOCH":30249,"BSTAR":0.0001633,"MEAN_MOTION_DOT":0.00005457,"MEAN_MOTION_DDOT":0},{"OBJECT_NAME":"HAWK-2A","OBJECT_ID":"2021-006CW","EPOCH":"2026-07-06T15:34:25.021344","CLASSIFICATION_TYPE":"U","MEAN_MOTION":15.34929187,"ECCENTRICITY":0.0007893,"INCLINATION":97.2308,"RA_OF_ASC_NODE":232.261,"ARG_OF_PERICENTER":128.4326,"MEAN_ANOMALY":231.7627,"EPHEMERIS_TYPE":0,"NORAD_CAT_ID":47505,"ELEMENT_SET_NO":999,"REV_AT_EPOCH":30248,"BSTAR":0.00016322,"MEAN_MOTION_DOT":0.00005455,"MEAN_MOTION_DDOT":0},{"OBJECT_NAME":"HAWK-2B","OBJECT_ID":"2021-006CZ","EPOCH":"2026-07-06T16:59:58.460064","CLASSIFICATION_TYPE":"U","MEAN_MOTION":15.35052854,"ECCENTRICITY":0.0008473,"INCLINATION":97.2178,"RA_OF_ASC_NODE":230.6202,"ARG_OF_PERICENTER":126.7999,"MEAN_ANOMALY":233.4023,"EPHEMERIS_TYPE":0,"NORAD_CAT_ID":47508,"ELEMENT_SET_NO":999,"REV_AT_EPOCH":30249,"BSTAR":0.00018692,"MEAN_MOTION_DOT":0.00006285,"MEAN_MOTION_DDOT":0},{"OBJECT_NAME":"HAWK-3B","OBJECT_ID":"2021-059BE","EPOCH":"2026-07-06T12:06:19.954368","CLASSIFICATION_TYPE":"U","MEAN_MOTION":15.71268243,"ECCENTRICITY":0.0003758,"INCLINATION":97.6647,"RA_OF_ASC_NODE":26.0618,"ARG_OF_PERICENTER":231.7433,"MEAN_ANOMALY":128.3491,"EPHEMERIS_TYPE":0,"NORAD_CAT_ID":48931,"ELEMENT_SET_NO":999,"REV_AT_EPOCH":28088,"BSTAR":0.00028563,"MEAN_MOTION_DOT":0.00036099,"MEAN_MOTION_DDOT":0},{"OBJECT_NAME":"HAWK-3C","OBJECT_ID":"2021-059BX","EPOCH":"2026-07-06T13:37:35.588064","CLASSIFICATION_TYPE":"U","MEAN_MOTION":15.71270324,"ECCENTRICITY":0.0004026,"INCLINATION":97.677,"RA_OF_ASC_NODE":31.8503,"ARG_OF_PERICENTER":233.2972,"MEAN_ANOMALY":126.7921,"EPHEMERIS_TYPE":0,"NORAD_CAT_ID":48948,"ELEMENT_SET_NO":999,"REV_AT_EPOCH":28089,"BSTAR":0.00027299,"MEAN_MOTION_DOT":0.00034494,"MEAN_MOTION_DDOT":0},{"OBJECT_NAME":"HAWK-3A","OBJECT_ID":"2021-059CG","EPOCH":"2026-07-06T12:05:43.286208","CLASSIFICATION_TYPE":"U","MEAN_MOTION":15.71262129,"ECCENTRICITY":0.0003944,"INCLINATION":97.6711,"RA_OF_ASC_NODE":28.9694,"ARG_OF_PERICENTER":235.8435,"MEAN_ANOMALY":124.2453,"EPHEMERIS_TYPE":0,"NORAD_CAT_ID":48957,"ELEMENT_SET_NO":999,"REV_AT_EPOCH":28088,"BSTAR":0.00027204,"MEAN_MOTION_DOT":0.00034361,"MEAN_MOTION_DDOT":0},{"OBJECT_NAME":"HAWK-5C","OBJECT_ID":"2022-057Y","EPOCH":"2026-07-06T09:21:45.605088","CLASSIFICATION_TYPE":"U","MEAN_MOTION":15.52101224,"ECCENTRICITY":0.00036847,"INCLINATION":97.6617,"RA_OF_ASC_NODE":348.3071,"ARG_OF_PERICENTER":18.8355,"MEAN_ANOMALY":341.3033,"EPHEMERIS_TYPE":0,"NORAD_CAT_ID":52754,"ELEMENT_SET_NO":999,"REV_AT_EPOCH":22932,"BSTAR":0.00029846373,"MEAN_MOTION_DOT":0.00017936,"MEAN_MOTION_DDOT":0},{"OBJECT_NAME":"HAWK-5B","OBJECT_ID":"2022-057AA","EPOCH":"2026-07-06T09:21:29.403360","CLASSIFICATION_TYPE":"U","MEAN_MOTION":15.52105754,"ECCENTRICITY":0.00042536,"INCLINATION":97.6633,"RA_OF_ASC_NODE":346.6586,"ARG_OF_PERICENTER":7.0663,"MEAN_ANOMALY":353.0648,"EPHEMERIS_TYPE":0,"NORAD_CAT_ID":52756,"ELEMENT_SET_NO":999,"REV_AT_EPOCH":22932,"BSTAR":0.00030488475,"MEAN_MOTION_DOT":0.0001833,"MEAN_MOTION_DDOT":0},{"OBJECT_NAME":"HAWK-5A","OBJECT_ID":"2022-057AB","EPOCH":"2026-07-06T17:05:23.836416","CLASSIFICATION_TYPE":"U","MEAN_MOTION":15.5211299,"ECCENTRICITY":0.0004101,"INCLINATION":97.663,"RA_OF_ASC_NODE":347.8331,"ARG_OF_PERICENTER":10.3745,"MEAN_ANOMALY":349.7591,"EPHEMERIS_TYPE":0,"NORAD_CAT_ID":52757,"ELEMENT_SET_NO":999,"REV_AT_EPOCH":22937,"BSTAR":0.00024873,"MEAN_MOTION_DOT":0.00014932,"MEAN_MOTION_DDOT":0},{"OBJECT_NAME":"HAWK-6B","OBJECT_ID":"2023-011A","EPOCH":"2026-07-06T14:13:17.044032","CLASSIFICATION_TYPE":"U","MEAN_MOTION":15.23104439,"ECCENTRICITY":0.0002872,"INCLINATION":40.4971,"RA_OF_ASC_NODE":238.8741,"ARG_OF_PERICENTER":193.054,"MEAN_ANOMALY":167.0196,"EPHEMERIS_TYPE":0,"NORAD_CAT_ID":55324,"ELEMENT_SET_NO":999,"REV_AT_EPOCH":19080,"BSTAR":0.0001503,"MEAN_MOTION_DOT":0.00003425,"MEAN_MOTION_DDOT":0},{"OBJECT_NAME":"HAWK-6C","OBJECT_ID":"2023-011C","EPOCH":"2026-07-06T14:12:23.406912","CLASSIFICATION_TYPE":"U","MEAN_MOTION":15.23104424,"ECCENTRICITY":0.0003231,"INCLINATION":40.4956,"RA_OF_ASC_NODE":235.7136,"ARG_OF_PERICENTER":178.1092,"MEAN_ANOMALY":181.973,"EPHEMERIS_TYPE":0,"NORAD_CAT_ID":55326,"ELEMENT_SET_NO":999,"REV_AT_EPOCH":19081,"BSTAR":0.00016225,"MEAN_MOTION_DOT":0.00003714,"MEAN_MOTION_DDOT":0},{"OBJECT_NAME":"HAWK-6A","OBJECT_ID":"2023-011D","EPOCH":"2026-07-06T14:12:26.316000","CLASSIFICATION_TYPE":"U","MEAN_MOTION":15.23105575,"ECCENTRICITY":0.0002762,"INCLINATION":40.4967,"RA_OF_ASC_NODE":237.3402,"ARG_OF_PERICENTER":177.2509,"MEAN_ANOMALY":182.8315,"EPHEMERIS_TYPE":0,"NORAD_CAT_ID":55327,"ELEMENT_SET_NO":999,"REV_AT_EPOCH":19081,"BSTAR":0.00016152,"MEAN_MOTION_DOT":0.00003696,"MEAN_MOTION_DDOT":0},{"OBJECT_NAME":"HAWK-7A","OBJECT_ID":"2023-054P","EPOCH":"2026-07-06T18:19:27.435072","CLASSIFICATION_TYPE":"U","MEAN_MOTION":15.27572982,"ECCENTRICITY":0.00024,"INCLINATION":97.2674,"RA_OF_ASC_NODE":74.6028,"ARG_OF_PERICENTER":8.5213,"MEAN_ANOMALY":351.6067,"EPHEMERIS_TYPE":0,"NORAD_CAT_ID":56191,"ELEMENT_SET_NO":999,"REV_AT_EPOCH":18001,"BSTAR":0.00018412,"MEAN_MOTION_DOT":0.00004892,"MEAN_MOTION_DDOT":0}]}
